{
  "type": "FeatureCollection",
  "name": "Chennai_Region_Forest_Vegetation_Reserves",
  "features": [
    {
      "type": "Feature",
      "properties": {
        "name": "Guindy National Park",
        "category": "National Park",
        "district": "Chennai",
        "state": "Tamil Nadu",
        "osm_id": 25006292,
        "source": "OpenStreetMap"
      },
      "geometry": {
        "type": "Polygon",
        "coordinates": [
          [
            [
              80.2167901,
              12.9971684
            ],
            [
              80.2171077,
              12.996215
            ],
            [
              80.2174803,
              12.9952554
            ],
            [
              80.2203309,
              12.9913364
            ],
            [
              80.2216224,
              12.9941493
            ],
            [
              80.2229442,
              12.9935221
            ],
            [
              80.2225802,
              12.9922157
            ],
            [
              80.2224893,
              12.9921672
            ],
            [
              80.2231673,
              12.9894909
            ],
            [
              80.2234678,
              12.9893822
            ],
            [
              80.2237682,
              12.9895662
            ],
            [
              80.2247552,
              12.9897585
            ],
            [
              80.2247818,
              12.9897732
            ],
            [
              80.225262,
              12.9900392
            ],
            [
              80.2255544,
              12.9906089
            ],
            [
              80.2258738,
              12.9906327
            ],
            [
              80.2259646,
              12.992523
            ],
            [
              80.2290639,
              12.9931792
            ],
            [
              80.2309231,
              12.9935845
            ],
            [
              80.232804,
              12.9947276
            ],
            [
              80.2337366,
              12.9952944
            ],
            [
              80.2340296,
              12.9955798
            ],
            [
              80.2344665,
              12.9959903
            ],
            [
              80.2360111,
              12.9974416
            ],
            [
              80.2375966,
              12.9990034
            ],
            [
              80.2392678,
              13.0028894
            ],
            [
              80.2382656,
              13.0029641
            ],
            [
              80.2376549,
              13.0037241
            ],
            [
              80.234267,
              13.0041326
            ],
            [
              80.2340204,
              13.004416
            ],
            [
              80.2357024,
              13.0062365
            ],
            [
              80.2348704,
              13.0064265
            ],
            [
              80.2351388,
              13.0077009
            ],
            [
              80.2284307,
              13.0090571
            ],
            [
              80.2284903,
              13.0088387
            ],
            [
              80.2274932,
              13.0068194
            ],
            [
              80.2277551,
              13.0041077
            ],
            [
              80.2276906,
              13.0026212
            ],
            [
              80.2250911,
              13.0028
            ],
            [
              80.2247355,
              13.0035951
            ],
            [
              80.2249499,
              13.0049444
            ],
            [
              80.2223756,
              13.0042998
            ],
            [
              80.2220079,
              13.0059103
            ],
            [
              80.2212962,
              13.0055315
            ],
            [
              80.2205086,
              13.0052231
            ],
            [
              80.2204025,
              13.0047356
            ],
            [
              80.2209867,
              13.0046194
            ],
            [
              80.2208971,
              13.0039348
            ],
            [
              80.2204379,
              13.0029306
            ],
            [
              80.2186526,
              13.0008733
            ],
            [
              80.2174721,
              12.9991367
            ],
            [
              80.2169637,
              12.9981888
            ],
            [
              80.2167901,
              12.9971684
            ]
          ]
        ]
      }
    },
    {
      "type": "Feature",
      "properties": {
        "name": "Nanmangalam Reserve Forest",
        "category": "Reserve Forest",
        "district": "Chengalpattu/Chennai",
        "state": "Tamil Nadu",
        "osm_id": 25611496,
        "source": "OpenStreetMap"
      },
      "geometry": {
        "type": "Polygon",
        "coordinates": [
          [
            [
              80.1626135,
              12.9251276
            ],
            [
              80.1627508,
              12.9227852
            ],
            [
              80.1643965,
              12.9235052
            ],
            [
              80.1697289,
              12.9261984
            ],
            [
              80.1694187,
              12.922118
            ],
            [
              80.1700861,
              12.921965
            ],
            [
              80.1708778,
              12.9217834
            ],
            [
              80.1704487,
              12.9202943
            ],
            [
              80.1742424,
              12.9191732
            ],
            [
              80.1778473,
              12.9183116
            ],
            [
              80.1780018,
              12.9183534
            ],
            [
              80.1788236,
              12.9189482
            ],
            [
              80.1794351,
              12.9193908
            ],
            [
              80.1839295,
              12.9205466
            ],
            [
              80.1829113,
              12.9229964
            ],
            [
              80.1813663,
              12.9307345
            ],
            [
              80.1806454,
              12.9307847
            ],
            [
              80.179731,
              12.9307829
            ],
            [
              80.1795896,
              12.930425
            ],
            [
              80.1793322,
              12.9298143
            ],
            [
              80.1778044,
              12.9300402
            ],
            [
              80.1775984,
              12.9302577
            ],
            [
              80.1777589,
              12.9312338
            ],
            [
              80.1765856,
              12.9313201
            ],
            [
              80.1750192,
              12.9299954
            ],
            [
              80.1745822,
              12.929993
            ],
            [
              80.1740278,
              12.92999
            ],
            [
              80.1747145,
              12.9320479
            ],
            [
              80.1726202,
              12.9328844
            ],
            [
              80.1725862,
              12.9335674
            ],
            [
              80.1725344,
              12.9346077
            ],
            [
              80.1689037,
              12.9348586
            ],
            [
              80.1688798,
              12.9354646
            ],
            [
              80.1688644,
              12.9358548
            ],
            [
              80.168851,
              12.9361924
            ],
            [
              80.1688436,
              12.9363811
            ],
            [
              80.1663557,
              12.935668
            ],
            [
              80.165989,
              12.9344048
            ],
            [
              80.1659051,
              12.9341159
            ],
            [
              80.1658145,
              12.9338038
            ],
            [
              80.1655569,
              12.9329164
            ],
            [
              80.1655306,
              12.9328259
            ],
            [
              80.1632818,
              12.9314456
            ],
            [
              80.1626135,
              12.9251276
            ]
          ]
        ]
      }
    },
    {
      "type": "Feature",
      "properties": {
        "name": "Pulicat Bird Sanctuary",
        "category": "Bird Sanctuary & Wetland Reserve",
        "district": "Tiruvallur",
        "state": "Tamil Nadu",
        "osm_id": 671020948,
        "source": "OpenStreetMap"
      },
      "geometry": {
        "type": "Polygon",
        "coordinates": [
          [
            [
              80.029478,
              13.7870707
            ],
            [
              80.0303363,
              13.7818191
            ],
            [
              80.0328254,
              13.7778178
            ],
            [
              80.040121,
              13.7771509
            ],
            [
              80.0452708,
              13.7759838
            ],
            [
              80.0521373,
              13.7745667
            ],
            [
              80.0559138,
              13.7704819
            ],
            [
              80.0564288,
              13.7649798
            ],
            [
              80.0581454,
              13.7572267
            ],
            [
              80.0626945,
              13.7510573
            ],
            [
              80.0615787,
              13.7389683
            ],
            [
              80.0621795,
              13.7310475
            ],
            [
              80.0618362,
              13.7235434
            ],
            [
              80.062437,
              13.7167895
            ],
            [
              80.0656127,
              13.7143714
            ],
            [
              80.0709342,
              13.7111194
            ],
            [
              80.0729083,
              13.7024473
            ],
            [
              80.0703334,
              13.6933161
            ],
            [
              80.0761699,
              13.6889797
            ],
            [
              80.0745821,
              13.6842263
            ],
            [
              80.0757837,
              13.681224
            ],
            [
              80.0760412,
              13.6786805
            ],
            [
              80.0754833,
              13.6744272
            ],
            [
              80.0717067,
              13.6696318
            ],
            [
              80.0699472,
              13.6642942
            ],
            [
              80.0676298,
              13.6597905
            ],
            [
              80.0678873,
              13.6571215
            ],
            [
              80.0660848,
              13.6538271
            ],
            [
              80.0607204,
              13.652159
            ],
            [
              80.0548839,
              13.6499487
            ],
            [
              80.0511932,
              13.6470295
            ],
            [
              80.0444555,
              13.6457783
            ],
            [
              80.042181,
              13.6453196
            ],
            [
              80.0361299,
              13.6394392
            ],
            [
              80.0328683,
              13.6355189
            ],
            [
              80.0308513,
              13.6233405
            ],
            [
              80.0331258,
              13.6123711
            ],
            [
              80.0376319,
              13.60186
            ],
            [
              80.0417947,
              13.5940598
            ],
            [
              80.0490474,
              13.5832141
            ],
            [
              80.0554847,
              13.5747875
            ],
            [
              80.06145,
              13.5657766
            ],
            [
              80.0656986,
              13.5589765
            ],
            [
              80.0686972,
              13.5565744
            ],
            [
              80.071063,
              13.5546793
            ],
            [
              80.0744104,
              13.5541787
            ],
            [
              80.0814324,
              13.5484748
            ],
            [
              80.083884,
              13.5447497
            ],
            [
              80.0885563,
              13.535336
            ],
            [
              80.0828433,
              13.5320451
            ],
            [
              80.0773606,
              13.5231868
            ],
            [
              80.0774065,
              13.514377
            ],
            [
              80.0768405,
              13.5062897
            ],
            [
              80.0784766,
              13.4927953
            ],
            [
              80.1042795,
              13.4922684
            ],
            [
              80.1125192,
              13.4932282
            ],
            [
              80.1128217,
              13.4977523
            ],
            [
              80.1157902,
              13.5045266
            ],
            [
              80.1241305,
              13.5034573
            ],
            [
              80.1269871,
              13.5038798
            ],
            [
              80.1303523,
              13.5020304
            ],
            [
              80.1459181,
              13.4980899
            ],
            [
              80.1455595,
              13.4907395
            ],
            [
              80.1737165,
              13.4892533
            ],
            [
              80.1828954,
              13.4899154
            ],
            [
              80.2094952,
              13.4855021
            ],
            [
              80.2109564,
              13.4895351
            ],
            [
              80.2156341,
              13.4874902
            ],
            [
              80.2151795,
              13.4855209
            ],
            [
              80.2206485,
              13.4848819
            ],
            [
              80.226206,
              13.4848402
            ],
            [
              80.2341869,
              13.4743365
            ],
            [
              80.2345759,
              13.4739217
            ],
            [
              80.2350748,
              13.4735122
            ],
            [
              80.2425576,
              13.4707473
            ],
            [
              80.2517421,
              13.5062243
            ],
            [
              80.2644266,
              13.557907
            ],
            [
              80.2639729,
              13.5620897
            ],
            [
              80.267319,
              13.5636257
            ],
            [
              80.2674222,
              13.5639201
            ],
            [
              80.2386474,
              13.6218808
            ],
            [
              80.2320384,
              13.6592484
            ],
            [
              80.2345275,
              13.7085345
            ],
            [
              80.2409342,
              13.736396
            ],
            [
              80.2511313,
              13.7800708
            ],
            [
              80.2480029,
              13.7927389
            ],
            [
              80.239542,
              13.8186726
            ],
            [
              80.228691,
              13.8440804
            ],
            [
              80.2043151,
              13.9033257
            ],
            [
              80.1791024,
              13.966887
            ],
            [
              80.1630305,
              13.9568917
            ],
            [
              80.1607131,
              13.9536431
            ],
            [
              80.159769,
              13.9493116
            ],
            [
              80.1621722,
              13.943064
            ],
            [
              80.1603698,
              13.9368996
            ],
            [
              80.1571941,
              13.9242371
            ],
            [
              80.1574515,
              13.9196551
            ],
            [
              80.1565074,
              13.8957438
            ],
            [
              80.1583099,
              13.8886616
            ],
            [
              80.1468085,
              13.8888282
            ],
            [
              80.1422595,
              13.8909113
            ],
            [
              80.1361655,
              13.8943274
            ],
            [
              80.1309299,
              13.9001596
            ],
            [
              80.1243209,
              13.9017427
            ],
            [
              80.120201,
              13.9029091
            ],
            [
              80.1136779,
              13.9044921
            ],
            [
              80.109558,
              13.9069082
            ],
            [
              80.1040649,
              13.9103241
            ],
            [
              80.0913619,
              13.9118238
            ],
            [
              80.0858687,
              13.9064084
            ],
            [
              80.0772857,
              13.9005762
            ],
            [
              80.0721358,
              13.8956605
            ],
            [
              80.0658702,
              13.8896614
            ],
            [
              80.0632094,
              13.8835789
            ],
            [
              80.0684451,
              13.8742465
            ],
            [
              80.0656127,
              13.8638305
            ],
            [
              80.0615787,
              13.8535806
            ],
            [
              80.0575446,
              13.8436637
            ],
            [
              80.057373,
              13.8407469
            ],
            [
              80.0551414,
              13.8347464
            ],
            [
              80.0511932,
              13.8268289
            ],
            [
              80.0428676,
              13.8151605
            ],
            [
              80.041151,
              13.8096595
            ],
            [
              80.0364303,
              13.8014911
            ],
            [
              80.029478,
              13.7870707
            ]
          ]
        ]
      }
    },
    {
      "type": "Feature",
      "properties": {
        "name": "Pallikaranai Marsh Reserve Forest",
        "category": "Conservation Reserve",
        "district": "Chennai/Chengalpattu",
        "state": "Tamil Nadu",
        "osm_id": 15046539,
        "source": "OpenStreetMap"
      },
      "geometry": {
        "type": "MultiPolygon",
        "coordinates": [
          [
            [
              [
                80.2082495,
                12.8917745
              ],
              [
                80.208625,
                12.8918738
              ],
              [
                80.2085391,
                12.890075
              ],
              [
                80.2083889,
                12.8900122
              ],
              [
                80.2084801,
                12.8897639
              ],
              [
                80.2084372,
                12.8893717
              ],
              [
                80.2097086,
                12.8897063
              ],
              [
                80.2096366,
                12.8901554
              ],
              [
                80.2097697,
                12.8901932
              ],
              [
                80.2098463,
                12.8901904
              ],
              [
                80.2098857,
                12.8901675
              ],
              [
                80.2099149,
                12.8901146
              ],
              [
                80.2100086,
                12.8897902
              ],
              [
                80.2101715,
                12.8891602
              ],
              [
                80.2103047,
                12.8886578
              ],
              [
                80.2104435,
                12.88815
              ],
              [
                80.2106849,
                12.8869244
              ],
              [
                80.211157,
                12.8851359
              ],
              [
                80.2111409,
                12.8848692
              ],
              [
                80.2105508,
                12.8820924
              ],
              [
                80.2101163,
                12.8799431
              ],
              [
                80.2105132,
                12.8797235
              ],
              [
                80.2110926,
                12.8796241
              ],
              [
                80.2135012,
                12.8791849
              ],
              [
                80.2163175,
                12.8786096
              ],
              [
                80.2126912,
                12.8849163
              ],
              [
                80.2144507,
                12.8860145
              ],
              [
                80.2150569,
                12.8849895
              ],
              [
                80.2163658,
                12.8827095
              ],
              [
                80.2172992,
                12.8809943
              ],
              [
                80.2176318,
                12.8811093
              ],
              [
                80.2177391,
                12.8816636
              ],
              [
                80.2167628,
                12.8830546
              ],
              [
                80.217428,
                12.8828664
              ],
              [
                80.2182845,
                12.8826888
              ],
              [
                80.2231381,
                12.8812561
              ],
              [
                80.2244843,
                12.877444
              ],
              [
                80.2246806,
                12.8768283
              ],
              [
                80.2267138,
                12.8766277
              ],
              [
                80.2266548,
                12.8775899
              ],
              [
                80.2265904,
                12.8782331
              ],
              [
                80.2260432,
                12.8783638
              ],
              [
                80.2260164,
                12.8789339
              ],
              [
                80.2261076,
                12.8797706
              ],
              [
                80.2254961,
                12.8796137
              ],
              [
                80.2247021,
                12.880032
              ],
              [
                80.2242515,
                12.8814335
              ],
              [
                80.2242301,
                12.8847176
              ],
              [
                80.2239404,
                12.8847385
              ],
              [
                80.2239618,
                12.8851568
              ],
              [
                80.2227522,
                12.885319
              ],
              [
                80.2211267,
                12.8853033
              ],
              [
                80.21882,
                12.8852091
              ],
              [
                80.2186162,
                12.8859831
              ],
              [
                80.2159125,
                12.8862655
              ],
              [
                80.2159233,
                12.8872695
              ],
              [
                80.2170712,
                12.8871544
              ],
              [
                80.2173395,
                12.8884879
              ],
              [
                80.2163417,
                12.8888958
              ],
              [
                80.215596,
                12.8895128
              ],
              [
                80.2155048,
                12.8900096
              ],
              [
                80.2153814,
                12.8900044
              ],
              [
                80.2153278,
                12.8904907
              ],
              [
                80.2153922,
                12.8910868
              ],
              [
                80.2155156,
                12.8915261
              ],
              [
                80.2156765,
                12.8916255
              ],
              [
                80.2174199,
                12.8919078
              ],
              [
                80.2174253,
                12.892232
              ],
              [
                80.2170605,
                12.8921902
              ],
              [
                80.2162854,
                12.8920281
              ],
              [
                80.2155236,
                12.8919941
              ],
              [
                80.2154914,
                12.8915967
              ],
              [
                80.2153439,
                12.8911444
              ],
              [
                80.214212,
                12.8911313
              ],
              [
                80.2135415,
                12.8909979
              ],
              [
                80.2135146,
                12.8911391
              ],
              [
                80.2131284,
                12.8911025
              ],
              [
                80.2131941,
                12.8907116
              ],
              [
                80.2129688,
                12.8913561
              ],
              [
                80.2129661,
                12.8932962
              ],
              [
                80.2129205,
                12.8945825
              ],
              [
                80.2129152,
                12.8964676
              ],
              [
                80.2143367,
                12.8964023
              ],
              [
                80.2169277,
                12.8963029
              ],
              [
                80.2173676,
                12.8976808
              ],
              [
                80.2177611,
                12.8976808
              ],
              [
                80.2181052,
                12.8976808
              ],
              [
                80.2183236,
                12.8976811
              ],
              [
                80.2197414,
                12.8976834
              ],
              [
                80.2218415,
                12.8975788
              ],
              [
                80.2220964,
                12.8975579
              ],
              [
                80.222209,
                12.8978534
              ],
              [
                80.2224182,
                12.8977906
              ],
              [
                80.2226167,
                12.8984181
              ],
              [
                80.2224987,
                12.8984547
              ],
              [
                80.2230727,
                12.8997986
              ],
              [
                80.2234857,
                12.9009437
              ],
              [
                80.2212649,
                12.9011424
              ],
              [
                80.2181106,
                12.9015241
              ],
              [
                80.2168607,
                12.9017751
              ],
              [
                80.2154498,
                12.902298
              ],
              [
                80.2099406,
                12.9044576
              ],
              [
                80.2098718,
                12.9044833
              ],
              [
                80.2089661,
                12.8986919
              ],
              [
                80.2087784,
                12.8975676
              ],
              [
                80.2087942,
                12.8974622
              ],
              [
                80.2088583,
                12.8974455
              ],
              [
                80.2087323,
                12.8964938
              ],
              [
                80.2085686,
                12.8961513
              ],
              [
                80.208515,
                12.8954967
              ],
              [
                80.2082763,
                12.8925798
              ],
              [
                80.2082495,
                12.8917745
              ]
            ]
          ],
          [
            [
              [
                80.2085649,
                12.9439441
              ],
              [
                80.2103245,
                12.9435939
              ],
              [
                80.2133098,
                12.94299
              ],
              [
                80.214166,
                12.9428159
              ],
              [
                80.2142995,
                12.9427887
              ],
              [
                80.2143878,
                12.9432102
              ],
              [
                80.2144041,
                12.943288
              ],
              [
                80.2145141,
                12.9432697
              ],
              [
                80.2148333,
                12.9442055
              ],
              [
                80.2155011,
                12.946336
              ],
              [
                80.2157715,
                12.9470409
              ],
              [
                80.2161429,
                12.9467836
              ],
              [
                80.2158794,
                12.9462288
              ],
              [
                80.2162166,
                12.9461133
              ],
              [
                80.2168711,
                12.9456803
              ],
              [
                80.2165337,
                12.9445626
              ],
              [
                80.216679,
                12.9444068
              ],
              [
                80.2165841,
                12.9437242
              ],
              [
                80.216972,
                12.9435958
              ],
              [
                80.2167366,
                12.9428816
              ],
              [
                80.2173856,
                12.9426935
              ],
              [
                80.2174957,
                12.9425025
              ],
              [
                80.2171069,
                12.9414156
              ],
              [
                80.2177086,
                12.9411628
              ],
              [
                80.2179285,
                12.9417379
              ],
              [
                80.2182128,
                12.9415497
              ],
              [
                80.2185293,
                12.9409432
              ],
              [
                80.2181002,
                12.9402897
              ],
              [
                80.2186098,
                12.9399342
              ],
              [
                80.2183469,
                12.9391499
              ],
              [
                80.2185538,
                12.9388024
              ],
              [
                80.2188512,
                12.938303
              ],
              [
                80.2197578,
                12.9377644
              ],
              [
                80.2198952,
                12.9368299
              ],
              [
                80.2200099,
                12.9360496
              ],
              [
                80.2197846,
                12.9340001
              ],
              [
                80.2198812,
                12.9318303
              ],
              [
                80.2199026,
                12.93125
              ],
              [
                80.2197095,
                12.9305389
              ],
              [
                80.2181842,
                12.9308793
              ],
              [
                80.2170509,
                12.9273934
              ],
              [
                80.2167374,
                12.9268065
              ],
              [
                80.2160055,
                12.9247086
              ],
              [
                80.2159136,
                12.9246369
              ],
              [
                80.2133216,
                12.9252069
              ],
              [
                80.2133409,
                12.9246349
              ],
              [
                80.2126092,
                12.9229544
              ],
              [
                80.2120748,
                12.9217396
              ],
              [
                80.211916,
                12.9208595
              ],
              [
                80.2114696,
                12.9188274
              ],
              [
                80.2111925,
                12.918035
              ],
              [
                80.209762,
                12.9142726
              ],
              [
                80.2100465,
                12.9122193
              ],
              [
                80.2091348,
                12.9123575
              ],
              [
                80.2089907,
                12.9112542
              ],
              [
                80.208691,
                12.9094763
              ],
              [
                80.2129661,
                12.9092566
              ],
              [
                80.2128012,
                12.905824
              ],
              [
                80.2126995,
                12.903707
              ],
              [
                80.2133019,
                12.9034752
              ],
              [
                80.2136913,
                12.90921
              ],
              [
                80.2189496,
                12.9155001
              ],
              [
                80.2245976,
                12.9139755
              ],
              [
                80.2250353,
                12.9135487
              ],
              [
                80.2255352,
                12.9139623
              ],
              [
                80.2259112,
                12.9138633
              ],
              [
                80.2263838,
                12.9160831
              ],
              [
                80.2257152,
                12.9160715
              ],
              [
                80.2251753,
                12.9162377
              ],
              [
                80.2252502,
                12.9165657
              ],
              [
                80.2254449,
                12.9165241
              ],
              [
                80.2257209,
                12.9184976
              ],
              [
                80.2257793,
                12.9188846
              ],
              [
                80.2258598,
                12.9190728
              ],
              [
                80.2260154,
                12.9197368
              ],
              [
                80.2262782,
                12.9197159
              ],
              [
                80.2263587,
                12.9200715
              ],
              [
                80.2269461,
                12.9199643
              ],
              [
                80.2270534,
                12.9204087
              ],
              [
                80.2265572,
                12.9205943
              ],
              [
                80.226533,
                12.9204349
              ],
              [
                80.2261039,
                12.9205786
              ],
              [
                80.2259617,
                12.9202675
              ],
              [
                80.2240359,
                12.9211015
              ],
              [
                80.2238294,
                12.9207486
              ],
              [
                80.2235987,
                12.9208113
              ],
              [
                80.2235021,
                12.9205342
              ],
              [
                80.2216595,
                12.9212113
              ],
              [
                80.2216809,
                12.9215041
              ],
              [
                80.2212518,
                12.9218021
              ],
              [
                80.2217346,
                12.922623
              ],
              [
                80.2219921,
                12.9235276
              ],
              [
                80.222507,
                12.9234596
              ],
              [
                80.2235156,
                12.9244687
              ],
              [
                80.2238964,
                12.9245419
              ],
              [
                80.2242451,
                12.9244791
              ],
              [
                80.2244758,
                12.9252268
              ],
              [
                80.226069,
                12.9247824
              ],
              [
                80.2258759,
                12.9242282
              ],
              [
                80.2269595,
                12.9241863
              ],
              [
                80.227614,
                12.9239406
              ],
              [
                80.2293574,
                12.9236347
              ],
              [
                80.2300199,
                12.9235066
              ],
              [
                80.2303534,
                12.9234545
              ],
              [
                80.2304689,
                12.9244015
              ],
              [
                80.2304518,
                12.9245759
              ],
              [
                80.2301299,
                12.9246125
              ],
              [
                80.2298617,
                12.9245157
              ],
              [
                80.2286734,
                12.9247249
              ],
              [
                80.2275442,
                12.9249811
              ],
              [
                80.2273887,
                12.9250778
              ],
              [
                80.2277642,
                12.926649
              ],
              [
                80.2284455,
                12.9290227
              ],
              [
                80.2275281,
                12.9292057
              ],
              [
                80.2282577,
                12.9318408
              ],
              [
                80.2283757,
                12.9323532
              ],
              [
                80.2287609,
                12.9342001
              ],
              [
                80.2291525,
                12.9361712
              ],
              [
                80.2294034,
                12.9371445
              ],
              [
                80.2298287,
                12.938834
              ],
              [
                80.2297341,
                12.9388786
              ],
              [
                80.2297464,
                12.9389304
              ],
              [
                80.2298184,
                12.9389487
              ],
              [
                80.2299172,
                12.9392388
              ],
              [
                80.2297446,
                12.939291
              ],
              [
                80.2297552,
                12.9393636
              ],
              [
                80.229938,
                12.9393686
              ],
              [
                80.2299653,
                12.9396036
              ],
              [
                80.2297088,
                12.9396659
              ],
              [
                80.2297214,
                12.9397381
              ],
              [
                80.2295965,
                12.9398198
              ],
              [
                80.2296239,
                12.939918
              ],
              [
                80.2298294,
                12.9398769
              ],
              [
                80.2300134,
                12.9403795
              ],
              [
                80.2301498,
                12.9409723
              ],
              [
                80.2299322,
                12.9410709
              ],
              [
                80.2299636,
                12.9412997
              ],
              [
                80.2302737,
                12.941187
              ],
              [
                80.230498,
                12.9417775
              ],
              [
                80.2306847,
                12.9421354
              ],
              [
                80.2303886,
                12.9422319
              ],
              [
                80.2303952,
                12.9423041
              ],
              [
                80.2307987,
                12.9423659
              ],
              [
                80.2308154,
                12.9421536
              ],
              [
                80.230982,
                12.9420318
              ],
              [
                80.2314436,
                12.9431857
              ],
              [
                80.2316294,
                12.9440963
              ],
              [
                80.2309807,
                12.9441539
              ],
              [
                80.2312176,
                12.9451769
              ],
              [
                80.2307313,
                12.9453021
              ],
              [
                80.231015,
                12.949725
              ],
              [
                80.2260291,
                12.9494455
              ],
              [
                80.2259884,
                12.9497881
              ],
              [
                80.2284215,
                12.9499594
              ],
              [
                80.2284363,
                12.9500479
              ],
              [
                80.2281789,
                12.9500192
              ],
              [
                80.227283,
                12.9501891
              ],
              [
                80.2268994,
                12.9505446
              ],
              [
                80.2269102,
                12.950704
              ],
              [
                80.2268887,
                12.9508583
              ],
              [
                80.2269692,
                12.9509654
              ],
              [
                80.2268565,
                12.951266
              ],
              [
                80.2264676,
                12.9513863
              ],
              [
                80.2262664,
                12.9514072
              ],
              [
                80.2264488,
                12.951781
              ],
              [
                80.2265642,
                12.9518751
              ],
              [
                80.2265856,
                12.9519692
              ],
              [
                80.2266339,
                12.9519797
              ],
              [
                80.2267063,
                12.9518803
              ],
              [
                80.226886,
                12.9518542
              ],
              [
                80.2270148,
                12.9520685
              ],
              [
                80.2270067,
                12.9524345
              ],
              [
                80.2271408,
                12.9526253
              ],
              [
                80.2270845,
                12.952939
              ],
              [
                80.2269799,
                12.9529364
              ],
              [
                80.2268833,
                12.9526488
              ],
              [
                80.226878,
                12.9524449
              ],
              [
                80.2266473,
                12.9521626
              ],
              [
                80.2263764,
                12.9519823
              ],
              [
                80.2260545,
                12.9519535
              ],
              [
                80.2257944,
                12.952079
              ],
              [
                80.2256817,
                12.9521992
              ],
              [
                80.2255932,
                12.9522646
              ],
              [
                80.2255825,
                12.9521077
              ],
              [
                80.2255771,
                12.9519404
              ],
              [
                80.2253947,
                12.9517496
              ],
              [
                80.2251667,
                12.9516712
              ],
              [
                80.224869,
                12.9516738
              ],
              [
                80.2246799,
                12.9517614
              ],
              [
                80.2244077,
                12.951568
              ],
              [
                80.2242977,
                12.9514203
              ],
              [
                80.2242092,
                12.9513797
              ],
              [
                80.2240536,
                12.9511876
              ],
              [
                80.2236419,
                12.9510765
              ],
              [
                80.2234059,
                12.9510321
              ],
              [
                80.2231551,
                12.9510974
              ],
              [
                80.2229848,
                12.9512438
              ],
              [
                80.2227165,
                12.9514007
              ],
              [
                80.2225274,
                12.9516032
              ],
              [
                80.2223142,
                12.9514804
              ],
              [
                80.2219092,
                12.9513876
              ],
              [
                80.221755,
                12.9514072
              ],
              [
                80.2215297,
                12.9515274
              ],
              [
                80.2211904,
                12.9515889
              ],
              [
                80.221012,
                12.951632
              ],
              [
                80.2204715,
                12.951994
              ],
              [
                80.2202301,
                12.9523861
              ],
              [
                80.2202516,
                12.9526789
              ],
              [
                80.2203321,
                12.9527834
              ],
              [
                80.2202409,
                12.9529089
              ],
              [
                80.2201443,
                12.9530553
              ],
              [
                80.2201336,
                12.9532644
              ],
              [
                80.2198224,
                12.9534003
              ],
              [
                80.2194684,
                12.9537192
              ],
              [
                80.2193504,
                12.954195
              ],
              [
                80.2195006,
                12.9545975
              ],
              [
                80.219522,
                12.9548328
              ],
              [
                80.2194201,
                12.9550628
              ],
              [
                80.2195703,
                12.9556588
              ],
              [
                80.2194201,
                12.9560561
              ],
              [
                80.2194255,
                12.9564691
              ],
              [
                80.2198117,
                12.9568037
              ],
              [
                80.2202033,
                12.9570128
              ],
              [
                80.2207773,
                12.9573003
              ],
              [
                80.2211421,
                12.9576245
              ],
              [
                80.2213674,
                12.958095
              ],
              [
                80.2217858,
                12.9588164
              ],
              [
                80.2226227,
                12.9591144
              ],
              [
                80.2231323,
                12.959036
              ],
              [
                80.2234059,
                12.9589
              ],
              [
                80.2235239,
                12.9585811
              ],
              [
                80.2238672,
                12.9589
              ],
              [
                80.2246558,
                12.9589419
              ],
              [
                80.2253478,
                12.9586177
              ],
              [
                80.2259808,
                12.9583041
              ],
              [
                80.2264153,
                12.958372
              ],
              [
                80.2268445,
                12.9581211
              ],
              [
                80.2272629,
                12.9579852
              ],
              [
                80.2275687,
                12.9580061
              ],
              [
                80.227853,
                12.9579068
              ],
              [
                80.2281266,
                12.9578911
              ],
              [
                80.2283626,
                12.9577551
              ],
              [
                80.2287703,
                12.9578597
              ],
              [
                80.2291565,
                12.9575356
              ],
              [
                80.2295535,
                12.9573212
              ],
              [
                80.2296769,
                12.9575774
              ],
              [
                80.2307095,
                12.9572559
              ],
              [
                80.2305687,
                12.9574336
              ],
              [
                80.2305446,
                12.9574807
              ],
              [
                80.2305794,
                12.9575905
              ],
              [
                80.230794,
                12.9576218
              ],
              [
                80.2308047,
                12.9577003
              ],
              [
                80.2312661,
                12.9577316
              ],
              [
                80.231891,
                12.9575931
              ],
              [
                80.2320117,
                12.957678
              ],
              [
                80.2320533,
                12.9577316
              ],
              [
                80.2322679,
                12.9577264
              ],
              [
                80.2324181,
                12.9577081
              ],
              [
                80.2324717,
                12.9576637
              ],
              [
                80.2325361,
                12.9575617
              ],
              [
                80.2331664,
                12.957661
              ],
              [
                80.2332254,
                12.9580662
              ],
              [
                80.2330538,
                12.9580897
              ],
              [
                80.2331047,
                12.9583956
              ],
              [
                80.2330404,
                12.9583616
              ],
              [
                80.2328875,
                12.958406
              ],
              [
                80.2327641,
                12.9584478
              ],
              [
                80.2322545,
                12.9585236
              ],
              [
                80.2322652,
                12.9585759
              ],
              [
                80.2323779,
                12.958555
              ],
              [
                80.2324395,
                12.9585916
              ],
              [
                80.2324959,
                12.9589262
              ],
              [
                80.2323993,
                12.9590307
              ],
              [
                80.2324274,
                12.9601939
              ],
              [
                80.2319418,
                12.9602017
              ],
              [
                80.2319288,
                12.9612072
              ],
              [
                80.2319286,
                12.9612199
              ],
              [
                80.2318267,
                12.9612591
              ],
              [
                80.2318186,
                12.9613819
              ],
              [
                80.2319152,
                12.9613976
              ],
              [
                80.2318991,
                12.9624327
              ],
              [
                80.2320761,
                12.9624301
              ],
              [
                80.2321002,
                12.9630548
              ],
              [
                80.2320949,
                12.9639801
              ],
              [
                80.2324972,
                12.9639801
              ],
              [
                80.2325643,
                12.9651328
              ],
              [
                80.2327949,
                12.9661208
              ],
              [
                80.2329156,
                12.9666096
              ],
              [
                80.2331195,
                12.9670801
              ],
              [
                80.2307109,
                12.9671115
              ],
              [
                80.2305745,
                12.9654243
              ],
              [
                80.2302454,
                12.9654444
              ],
              [
                80.2302409,
                12.965305
              ],
              [
                80.2298463,
                12.9653393
              ],
              [
                80.229802,
                12.9651263
              ],
              [
                80.2297188,
                12.9651095
              ],
              [
                80.2296612,
                12.9649813
              ],
              [
                80.2295582,
                12.964969
              ],
              [
                80.2294163,
                12.965061
              ],
              [
                80.2293216,
                12.965261
              ],
              [
                80.2294913,
                12.965365
              ],
              [
                80.2295306,
                12.9655312
              ],
              [
                80.2284675,
                12.9656331
              ],
              [
                80.2284706,
                12.9658999
              ],
              [
                80.2281383,
                12.9659185
              ],
              [
                80.2281606,
                12.9660971
              ],
              [
                80.2285368,
                12.9661162
              ],
              [
                80.2283613,
                12.9663114
              ],
              [
                80.2281278,
                12.9663377
              ],
              [
                80.2280668,
                12.9666065
              ],
              [
                80.22836,
                12.966926
              ],
              [
                80.2277476,
                12.9673576
              ],
              [
                80.2275178,
                12.9677956
              ],
              [
                80.2272635,
                12.9678107
              ],
              [
                80.2270988,
                12.9679123
              ],
              [
                80.2269877,
                12.9680506
              ],
              [
                80.2267771,
                12.9680572
              ],
              [
                80.226491,
                12.9679723
              ],
              [
                80.226423,
                12.9680971
              ],
              [
                80.2265348,
                12.9682794
              ],
              [
                80.2248516,
                12.9680344
              ],
              [
                80.2243612,
                12.9678332
              ],
              [
                80.2243223,
                12.9679243
              ],
              [
                80.2239364,
                12.9687123
              ],
              [
                80.2243656,
                12.9689836
              ],
              [
                80.2239446,
                12.9688629
              ],
              [
                80.2236981,
                12.9687207
              ],
              [
                80.2234302,
                12.9685094
              ],
              [
                80.2234739,
                12.9684424
              ],
              [
                80.2236068,
                12.9684941
              ],
              [
                80.2240125,
                12.9677465
              ],
              [
                80.2240374,
                12.9676186
              ],
              [
                80.2237606,
                12.9672861
              ],
              [
                80.2237342,
                12.9670438
              ],
              [
                80.2234953,
                12.9665655
              ],
              [
                80.2234836,
                12.9657327
              ],
              [
                80.2237242,
                12.9650524
              ],
              [
                80.2242115,
                12.9645186
              ],
              [
                80.2249394,
                12.9641243
              ],
              [
                80.2257075,
                12.96396
              ],
              [
                80.2256585,
                12.9637045
              ],
              [
                80.2242624,
                12.9639726
              ],
              [
                80.2235785,
                12.9639024
              ],
              [
                80.2230366,
                12.963741
              ],
              [
                80.222307,
                12.9632718
              ],
              [
                80.2215129,
                12.9624746
              ],
              [
                80.2209874,
                12.9614645
              ],
              [
                80.2200541,
                12.9597721
              ],
              [
                80.2183499,
                12.9588334
              ],
              [
                80.2180459,
                12.9585822
              ],
              [
                80.2178465,
                12.9587413
              ],
              [
                80.2193958,
                12.9601551
              ],
              [
                80.2196571,
                12.9606979
              ],
              [
                80.2197131,
                12.9619335
              ],
              [
                80.2199514,
                12.9625495
              ],
              [
                80.2163467,
                12.963942
              ],
              [
                80.2136867,
                12.9569737
              ],
              [
                80.2165734,
                12.956474
              ],
              [
                80.2167642,
                12.9565352
              ],
              [
                80.2168965,
                12.9565314
              ],
              [
                80.2170168,
                12.9563876
              ],
              [
                80.2179526,
                12.9562684
              ],
              [
                80.2179991,
                12.9561525
              ],
              [
                80.2179344,
                12.9558443
              ],
              [
                80.2178518,
                12.9557428
              ],
              [
                80.217353,
                12.9558319
              ],
              [
                80.2172278,
                12.9557614
              ],
              [
                80.2171625,
                12.9557679
              ],
              [
                80.2170919,
                12.9557902
              ],
              [
                80.2169526,
                12.9559034
              ],
              [
                80.2133954,
                12.9565391
              ],
              [
                80.2103991,
                12.9488493
              ],
              [
                80.2104708,
                12.9486109
              ],
              [
                80.2106577,
                12.9486025
              ],
              [
                80.2108398,
                12.9486073
              ],
              [
                80.2108316,
                12.9482845
              ],
              [
                80.2106362,
                12.9482899
              ],
              [
                80.2106142,
                12.9480692
              ],
              [
                80.2107,
                12.9480521
              ],
              [
                80.2109232,
                12.9480083
              ],
              [
                80.211556,
                12.9478937
              ],
              [
                80.2120311,
                12.9477992
              ],
              [
                80.2124917,
                12.9477094
              ],
              [
                80.2124469,
                12.947196
              ],
              [
                80.2122886,
                12.9470941
              ],
              [
                80.2125676,
                12.9466627
              ],
              [
                80.2124362,
                12.9460432
              ],
              [
                80.2130584,
                12.9462994
              ],
              [
                80.2132623,
                12.9459151
              ],
              [
                80.2132167,
                12.9454995
              ],
              [
                80.2124764,
                12.9456563
              ],
              [
                80.2122645,
                12.9447467
              ],
              [
                80.2090619,
                12.9453845
              ],
              [
                80.208732,
                12.9446918
              ],
              [
                80.2086355,
                12.9443702
              ],
              [
                80.2085649,
                12.9439441
              ]
            ],
            [
              [
                80.2110176,
                12.9486162
              ],
              [
                80.2114494,
                12.9486265
              ],
              [
                80.2114579,
                12.9482885
              ],
              [
                80.2110261,
                12.9482782
              ],
              [
                80.2110176,
                12.9486162
              ]
            ],
            [
              [
                80.2115553,
                12.9486368
              ],
              [
                80.2132876,
                12.9487354
              ],
              [
                80.2133072,
                12.9484098
              ],
              [
                80.2115749,
                12.9483108
              ],
              [
                80.2115553,
                12.9486368
              ]
            ],
            [
              [
                80.2133544,
                12.9487194
              ],
              [
                80.2145107,
                12.9488355
              ],
              [
                80.2145437,
                12.948522
              ],
              [
                80.2133874,
                12.9484062
              ],
              [
                80.2133544,
                12.9487194
              ]
            ],
            [
              [
                80.214612,
                12.9488397
              ],
              [
                80.2153003,
                12.9489141
              ],
              [
                80.2153375,
                12.9485872
              ],
              [
                80.2146491,
                12.9485129
              ],
              [
                80.214612,
                12.9488397
              ]
            ],
            [
              [
                80.2153957,
                12.9489184
              ],
              [
                80.2164925,
                12.9490341
              ],
              [
                80.2165295,
                12.9487005
              ],
              [
                80.2154327,
                12.9485849
              ],
              [
                80.2153957,
                12.9489184
              ]
            ],
            [
              [
                80.2165729,
                12.9490286
              ],
              [
                80.2174056,
                12.9491221
              ],
              [
                80.2174448,
                12.9487905
              ],
              [
                80.2166122,
                12.9486969
              ],
              [
                80.2165729,
                12.9490286
              ]
            ],
            [
              [
                80.217492,
                12.9491193
              ],
              [
                80.2177954,
                12.9491558
              ],
              [
                80.2178368,
                12.9488278
              ],
              [
                80.2175335,
                12.9487913
              ],
              [
                80.217492,
                12.9491193
              ]
            ],
            [
              [
                80.2179433,
                12.9491622
              ],
              [
                80.2187857,
                12.9492513
              ],
              [
                80.2188219,
                12.9489266
              ],
              [
                80.2179796,
                12.9488373
              ],
              [
                80.2179433,
                12.9491622
              ]
            ],
            [
              [
                80.2188692,
                12.9492536
              ],
              [
                80.2201447,
                12.9493896
              ],
              [
                80.2201805,
                12.9490708
              ],
              [
                80.218905,
                12.9489345
              ],
              [
                80.2188692,
                12.9492536
              ]
            ],
            [
              [
                80.2202521,
                12.949387
              ],
              [
                80.2211165,
                12.9494815
              ],
              [
                80.2211525,
                12.9491688
              ],
              [
                80.2202881,
                12.9490741
              ],
              [
                80.2202521,
                12.949387
              ]
            ],
            [
              [
                80.2212248,
                12.9494812
              ],
              [
                80.2223852,
                12.9495593
              ],
              [
                80.2224074,
                12.9492449
              ],
              [
                80.221247,
                12.9491671
              ],
              [
                80.2212248,
                12.9494812
              ]
            ],
            [
              [
                80.2225332,
                12.9495707
              ],
              [
                80.2229644,
                12.9495985
              ],
              [
                80.2229862,
                12.9492777
              ],
              [
                80.222555,
                12.9492499
              ],
              [
                80.2225332,
                12.9495707
              ]
            ],
            [
              [
                80.2230424,
                12.9496007
              ],
              [
                80.2232984,
                12.9496184
              ],
              [
                80.223322,
                12.9492947
              ],
              [
                80.223066,
                12.949277
              ],
              [
                80.2230488,
                12.9495131
              ],
              [
                80.2230424,
                12.9496007
              ]
            ],
            [
              [
                80.2234459,
                12.9496301
              ],
              [
                80.225835,
                12.9497765
              ],
              [
                80.2258565,
                12.9494422
              ],
              [
                80.2234674,
                12.9492962
              ],
              [
                80.2234459,
                12.9496301
              ]
            ]
          ]
        ]
      }
    },
    {
      "type": "Feature",
      "properties": {
        "name": "Vandalur Reserve Forest",
        "category": "Reserve Forest",
        "district": "Chengalpattu",
        "state": "Tamil Nadu",
        "source": "OpenStreetMap"
      },
      "geometry": {
        "type": "Polygon",
        "coordinates": [
          [
            [
              80.0850953,
              12.8887649
            ],
            [
              80.0853849,
              12.8885244
            ],
            [
              80.0857798,
              12.8872861
            ],
            [
              80.0867239,
              12.8866
            ],
            [
              80.0889297,
              12.8865414
            ],
            [
              80.0905777,
              12.8872944
            ],
            [
              80.0914789,
              12.8882985
            ],
            [
              80.091554,
              12.8892057
            ],
            [
              80.0917007,
              12.8896315
            ],
            [
              80.0916809,
              12.8900853
            ],
            [
              80.0925129,
              12.8904964
            ],
            [
              80.0932875,
              12.8897822
            ],
            [
              80.0939248,
              12.8901987
            ],
            [
              80.0943474,
              12.8904353
            ],
            [
              80.0947804,
              12.8907722
            ],
            [
              80.0950045,
              12.8907138
            ],
            [
              80.09518,
              12.8906183
            ],
            [
              80.0952984,
              12.8904473
            ],
            [
              80.0953535,
              12.8903717
            ],
            [
              80.0954442,
              12.8903416
            ],
            [
              80.0956595,
              12.8901845
            ],
            [
              80.0997358,
              12.8933436
            ],
            [
              80.1036068,
              12.8916619
            ],
            [
              80.1027775,
              12.8899246
            ],
            [
              80.1047934,
              12.8884219
            ],
            [
              80.1055402,
              12.8904109
            ],
            [
              80.1057547,
              12.8909821
            ],
            [
              80.1080207,
              12.8948141
            ],
            [
              80.1061324,
              12.895818
            ],
            [
              80.1066474,
              12.8973826
            ],
            [
              80.1063899,
              12.8977591
            ],
            [
              80.1051196,
              12.8988886
            ],
            [
              80.104802,
              12.8997921
            ],
            [
              80.0979012,
              12.9040255
            ],
            [
              80.0915755,
              12.8971567
            ],
            [
              80.0901679,
              12.894789
            ],
            [
              80.0885114,
              12.893877
            ],
            [
              80.0870265,
              12.892279
            ],
            [
              80.0862798,
              12.8912415
            ],
            [
              80.0850953,
              12.8887649
            ]
          ]
        ]
      }
    },
    {
      "type": "Feature",
      "properties": {
        "name": "Nagalapuram Reserve Forest",
        "category": "Hill Reserve Forest",
        "district": "Tiruvallur/Tirupati Border",
        "state": "Tamil Nadu / AP Border",
        "source": "OpenStreetMap"
      },
      "geometry": {
        "type": "Polygon",
        "coordinates": [
          [
            [
              79.7894631,
              13.5003192
            ],
            [
              79.81946310000001,
              13.5003192
            ],
            [
              79.81946310000001,
              13.530319200000001
            ],
            [
              79.7894631,
              13.530319200000001
            ],
            [
              79.7894631,
              13.5003192
            ]
          ]
        ]
      }
    },
    {
      "type": "Feature",
      "properties": {
        "name": "Sebangau Peat Swamp National Park",
        "category": "National Park / Peatland Reserve",
        "district": "Central Kalimantan",
        "country": "Indonesia",
        "biome": "Peat Swamp Tropical Forest"
      },
      "geometry": {
        "type": "Polygon",
        "coordinates": [
          [
            [
              113.2,
              -2.0
            ],
            [
              114.2,
              -2.0
            ],
            [
              114.2,
              -3.2
            ],
            [
              113.2,
              -3.2
            ],
            [
              113.2,
              -2.0
            ]
          ]
        ]
      }
    },
    {
      "type": "Feature",
      "properties": {
        "name": "Tanjung Puting Biosphere Reserve",
        "category": "National Park / Biosphere Reserve",
        "district": "Central Kalimantan",
        "country": "Indonesia",
        "biome": "Tropical Heath & Peat Swamp Forest"
      },
      "geometry": {
        "type": "Polygon",
        "coordinates": [
          [
            [
              111.7,
              -2.6
            ],
            [
              112.3,
              -2.6
            ],
            [
              112.3,
              -3.5
            ],
            [
              111.7,
              -3.5
            ],
            [
              111.7,
              -2.6
            ]
          ]
        ]
      }
    },
    {
      "type": "Feature",
      "properties": {
        "name": "Gunung Leuser Tropical Rainforest",
        "category": "National Park / UNESCO Heritage",
        "district": "Aceh & North Sumatra",
        "country": "Indonesia",
        "biome": "Tropical Montane & Lowland Rainforest"
      },
      "geometry": {
        "type": "Polygon",
        "coordinates": [
          [
            [
              96.8,
              3.0
            ],
            [
              98.2,
              3.0
            ],
            [
              98.2,
              4.3
            ],
            [
              96.8,
              4.3
            ],
            [
              96.8,
              3.0
            ]
          ]
        ]
      }
    },
    {
      "type": "Feature",
      "properties": {
        "name": "Tesso Nilo Rain Forest Reserve",
        "category": "National Park",
        "district": "Riau, Sumatra",
        "country": "Indonesia",
        "biome": "Lowland Tropical Rainforest"
      },
      "geometry": {
        "type": "Polygon",
        "coordinates": [
          [
            [
              101.3,
              -0.4
            ],
            [
              102.0,
              -0.4
            ],
            [
              102.0,
              0.2
            ],
            [
              101.3,
              0.2
            ],
            [
              101.3,
              -0.4
            ]
          ]
        ]
      }
    },
    {
      "type": "Feature",
      "properties": {
        "name": "Kerinci Seblat National Park",
        "category": "National Park / UNESCO Heritage",
        "district": "Jambi & West Sumatra",
        "country": "Indonesia",
        "biome": "Montane Tropical Rainforest"
      },
      "geometry": {
        "type": "Polygon",
        "coordinates": [
          [
            [
              100.8,
              -2.0
            ],
            [
              102.2,
              -2.0
            ],
            [
              102.2,
              -3.4
            ],
            [
              100.8,
              -3.4
            ],
            [
              100.8,
              -2.0
            ]
          ]
        ]
      }
    },
    {
      "type": "Feature",
      "properties": {
        "name": "Jamanxim National Forest",
        "category": "National Forest (Flona)",
        "district": "Par\u00e1",
        "country": "Brazil",
        "biome": "Amazon Moist Broadleaf Forest"
      },
      "geometry": {
        "type": "Polygon",
        "coordinates": [
          [
            [
              -56.2,
              -7.0
            ],
            [
              -55.0,
              -7.0
            ],
            [
              -55.0,
              -8.3
            ],
            [
              -56.2,
              -8.3
            ],
            [
              -56.2,
              -7.0
            ]
          ]
        ]
      }
    },
    {
      "type": "Feature",
      "properties": {
        "name": "Tapaj\u00f3s National Forest",
        "category": "National Forest",
        "district": "Par\u00e1",
        "country": "Brazil",
        "biome": "Amazonian Dense Ombrophilous Forest"
      },
      "geometry": {
        "type": "Polygon",
        "coordinates": [
          [
            [
              -55.5,
              -3.2
            ],
            [
              -54.8,
              -3.2
            ],
            [
              -54.8,
              -4.3
            ],
            [
              -55.5,
              -4.3
            ],
            [
              -55.5,
              -3.2
            ]
          ]
        ]
      }
    },
    {
      "type": "Feature",
      "properties": {
        "name": "Xingu Indigenous Reserve & Forest Basin",
        "category": "Indigenous Territory & Forest",
        "district": "Mato Grosso",
        "country": "Brazil",
        "biome": "Southern Amazon Transitional Forest"
      },
      "geometry": {
        "type": "Polygon",
        "coordinates": [
          [
            [
              -54.5,
              -11.0
            ],
            [
              -52.8,
              -11.0
            ],
            [
              -52.8,
              -12.5
            ],
            [
              -54.5,
              -12.5
            ],
            [
              -54.5,
              -11.0
            ]
          ]
        ]
      }
    },
    {
      "type": "Feature",
      "properties": {
        "name": "Mapinguari National Park",
        "category": "National Park",
        "district": "Rond\u00f4nia & Amazonas",
        "country": "Brazil",
        "biome": "Southwest Amazon Moist Forest"
      },
      "geometry": {
        "type": "Polygon",
        "coordinates": [
          [
            [
              -65.0,
              -8.5
            ],
            [
              -63.2,
              -8.5
            ],
            [
              -63.2,
              -9.8
            ],
            [
              -65.0,
              -9.8
            ],
            [
              -65.0,
              -8.5
            ]
          ]
        ]
      }
    },
    {
      "type": "Feature",
      "properties": {
        "name": "Cristalino State Park & Rainforest Reserve",
        "category": "State Park / Biological Reserve",
        "district": "Mato Grosso",
        "country": "Brazil",
        "biome": "Southern Amazon Evergreen Rainforest"
      },
      "geometry": {
        "type": "Polygon",
        "coordinates": [
          [
            [
              -56.2,
              -9.3
            ],
            [
              -55.4,
              -9.3
            ],
            [
              -55.4,
              -10.1
            ],
            [
              -56.2,
              -10.1
            ],
            [
              -56.2,
              -9.3
            ]
          ]
        ]
      }
    }
  ]
}